ONEWEB-0371             
1 49297U 21090U   25354.48968989  .00000025  00000+0  29666-4 0  9992
2 49297  87.9206 340.5214 0001768  83.9245 276.2089 13.19725228202881
ONEWEB-0372             
1 49298U 21090V   25354.45107072  .00000065  00000+0  12734-3 0  9999
2 49298  87.9206 310.0867 0001930  78.2034 281.9315 13.20770615206243
ONEWEB-0373             
1 49299U 21090W   25354.40227709  .00000103  00000+0  22156-3 0  9997
2 49299  87.9202 310.1096 0001796  83.7298 276.4040 13.20770505207421
ONEWEB-0374             
1 49300U 21090X   25354.16581029  .00000007  00000+0 -15762-4 0  9991
2 49300  87.8998 325.3643 0002215  93.8158 266.3225 13.14500506204048
ONEWEB-0375             
1 49301U 21090Y   25354.38966373 -.00000020  00000+0 -80860-4 0  9992
2 49301  87.9201 310.0925 0001948  98.5535 261.5819 13.20771574206921
ONEWEB-0376             
1 49302U 21090Z   25354.48810451  .00000013  00000+0 -46479-6 0  9990
2 49302  87.9209 340.5098 0001910  79.8647 280.2701 13.19724000202883
ONEWEB-0377             
1 49303U 21090AA  25354.45134879  .00000164  00000+0  37033-3 0  9990
2 49303  87.9209 310.0819 0001665  84.3674 275.7649 13.20768963206922
ONEWEB-0378             
1 49304U 21090AB  25354.39769372  .00000034  00000+0  51145-4 0  9993
2 49304  87.9206 310.1066 0001903  84.5280 275.6070 13.20771169206182
